# From MPC112390
C/2015 V2 (Johnson),h,06/11.1898/2017,49.8124,69.9833,164.9811,1.001736,1.647636,2000,5.0,4.0
# From MPC115881
C/2015 VL62 (Lemmon-Yeung-PANSTARRS),h,08/28.0048/2017,165.8218,95.1683,128.9452,1.001666,2.723395,2000,8.0,4.0
# From MPC101098
P/2015 W2 (Catalina),e,11.6079,294.2053,117.5010,7.292149,0.0500519,0.63472269,117.7990,03/13.0/2022,2000,g 13.0,4.0
# From MPEC 2021-N06
P/2015 X1 (PANSTARRS),e,12.1526,161.7588,218.8027,3.636657,0.1421185,0.41934422,334.7291,03/13.0/2022,2000,g 16.0,4.0
# From MPEC 2021-P47
C/2015 XY1 (Lemmon),h,04/26.3187/2018,148.8520,281.5971,196.1617,1.000846,7.922948,2000,5.5,4.0
# From MPC 97498
P/2015 X3 (PANSTARRS),e,24.3992,77.2816,306.7100,5.006473,0.0879845,0.43966329,211.7357,03/13.0/2022,2000,g 15.0,4.0
# From MPC119995
C/2015 X5 (PANSTARRS),h,12/27.9859/2017,124.3116,122.3298,27.5790,1.000171,6.794622,2000,7.5,4.0
# From MPC115881
P/2015 X6 (PANSTARRS),e,4.5645,106.9405,329.8168,2.753196,0.2157488,0.17282406,110.4567,03/13.0/2022,2000,g 16.0,4.0
# From MPEC 2021-P47
C/2016 A1 (PANSTARRS),e,121.2081,128.1931,10.1423,494569,0.0000000,0.99998925,0.0000,11/21.4623/2017,2000,g  6.0,4.0
# From MPC100282
P/2016 A2 (Christensen),e,26.4032,291.6176,141.3338,4.753128,0.0951119,0.27061574,234.3528,03/13.0/2022,2000,g 11.5,4.0
# From MPC115881
P/2016 A3 (PANSTARRS),e,8.5103,187.2355,340.9897,7.884690,0.0445171,0.38621836,79.2748,03/13.0/2022,2000,g 10.0,4.0
# From MPC102098
P/2016 A7 (PANSTARRS),e,16.6062,221.4970,352.5799,5.033997,0.0872639,0.56451148,192.9636,03/13.0/2022,2000,g 16.0,4.0
# From MPC109143
P/2016 BA14 (PANSTARRS),e,18.8946,180.5207,351.9115,3.025328,0.1873033,0.66509708,50.3259,03/13.0/2022,2000,g 21.0,4.0
# From MPC110494
C/2016 E1 (PANSTARRS),h,06/03.9591/2017,131.8715,233.1225,47.4590,1.006240,8.174497,2000,6.5,4.0
# From MPEC 2021-P47
P/2016 G1 (PANSTARRS),e,10.9715,204.0230,111.1121,2.582273,0.2375204,0.21097184,84.5910,03/13.0/2022,2000,g 14.0,4.0
# From MPEC 2017-D91
P/2016 J1-A (PANSTARRS),e,14.3287,199.8114,46.9891,3.172094,0.1744557,0.22774019,3.5401,03/13.0/2022,2000,g 16.5,4.0
# From MPEC 2017-A77
P/2016 J1-B (PANSTARRS),e,14.3315,199.8163,46.8801,3.171724,0.1744862,0.22759078,3.6787,03/13.0/2022,2000,g 17.0,4.0
# From MPEC 2022-ED3
C/2016 M1 (PANSTARRS),e,90.9350,92.2375,209.9323,62697,0.0000001,0.99996469,0.0000,08/10.5437/2018,2000,g  5.0,4.0
# From MPEC 2021-N06
C/2016 N4 (MASTER),e,72.6499,353.9903,55.9519,4667,0.0000031,0.99931503,0.0000,09/17.2782/2017,2000,g  8.5,4.0
# From MPEC 2021-P47
C/2016 N6 (PANSTARRS),e,105.8462,298.9619,162.6384,1111,0.0000266,0.99760360,0.0000,07/17.7542/2018,2000,g  7.0,4.0
# From MPC102099
P/2016 P1 (PANSTARRS),e,24.4545,319.5667,270.1715,3.194573,0.1726175,0.28921562,47.5561,03/13.0/2022,2000,g 15.0,4.0
# From MPEC 2022-ED3
C/2016 Q2 (PANSTARRS),h,05/12.1361/2021,109.3877,322.2989,84.5449,1.001852,7.081938,2000,6.0,4.0
# From MPC102955
C/2016 Q4 (Kowalski),e,7.2514,271.2965,99.5564,16.98606,0.0140788,0.58255533,21.1621,03/13.0/2022,2000,g  7.0,4.0
# From MPEC 2021-N06
C/2016 R2 (PANSTARRS),e,58.2780,80.5362,33.1150,480.5289,0.0000936,0.99459097,0.0000,05/09.0001/2018,2000,g  7.0,4.0
# From MPC109144
P/2016 R4 (Gibbs),e,10.8776,168.2621,174.0858,5.332077,0.0800497,0.47639826,164.7922,03/13.0/2022,2000,g 12.5,4.0
# From MPC105543
P/2016 S1 (PANSTARRS),e,94.7093,227.6066,273.2745,8.277544,0.0413858,0.71004622,75.4431,03/13.0/2022,2000,g 12.0,4.0
# From MPC105238
C/2016 T1 (Matheny),e,129.8509,56.4222,137.5407,126.4879,0.0006928,0.98177676,0.0000,02/01.8412/2017,2000,g 14.5,4.0
# From MPC110082
C/2016 T3 (PANSTARRS),e,22.7009,271.6869,194.5872,129.3110,0.0006703,0.97957278,0.0000,09/06.6104/2017,2000,g 10.5,4.0
# From MPC106345
C/2016 VZ18 (PANSTARRS),e,24.0126,98.9321,36.3373,157.2282,0.0004999,0.99419789,0.0000,03/04.8826/2017,2000,g 19.5,4.0
# From MPC106345
P/2016 WM48 (Lemmon),e,117.5232,59.9171,36.1111,8.166389,0.0422337,0.78357677,77.8684,03/13.0/2022,2000,g 15.0,4.0
# From MPEC 2021-P47
C/2016 X1 (Lemmon),e,26.4542,256.3733,224.4758,1266,0.0000219,0.99402966,0.0000,04/27.8992/2019,2000,g  6.0,4.0
# From MPC108594
C/2017 A1 (PANSTARRS),e,49.8114,121.0185,1.9435,75.06569,0.0015155,0.96955513,2.6703,03/13.0/2022,2000,g 13.0,4.0
# From MPC108594
C/2017 A3 (Elenin),e,98.5040,97.8535,303.9291,43.34688,0.0034536,0.91139762,6.4478,03/13.0/2022,2000,g  9.5,4.0
# From MPC114598
C/2017 AB5 (PANSTARRS),e,32.4554,42.6109,78.2948,2318,0.0000088,0.99602731,0.0000,02/14.5215/2018,2000,g  5.5,4.0
# From MPEC 2022-A21
C/2017 B3 (LINEAR),h,02/02.1181/2019,54.1609,2.1763,284.8167,1.000891,3.926204,2000,6.0,4.0
# From MPC103847
P/2017 B4 (PANSTARRS),e,20.0584,121.4578,11.0197,4.410520,0.1064068,0.36495152,359.9130,01/05.0/2017,2000,g 14.5,4.0
# From MPC104793
P/2017 D1 (Fuls),e,20.7603,82.1822,7.9739,4.828882,0.0928826,0.43648746,194.0466,03/13.0/2022,2000,g 14.0,4.0
# From MPC112391
C/2017 D2 (Barros),e,31.2577,330.9507,334.6276,11618,0.0000008,0.99978506,0.0000,07/14.6812/2017,2000,g 11.0,4.0
# From MPC114598
C/2017 D3 (ATLAS),h,04/27.4503/2017,125.5909,186.7149,340.8120,1.002071,4.966000,2000,8.0,4.0
# From MPC110495
P/2017 D4 (PANSTARRS),e,10.5389,264.9385,212.1903,7.554442,0.0474680,0.62852370,95.6630,03/13.0/2022,2000,g 13.0,4.0
# From MPC106346
C/2017 E1 (Borisov),h,04/10.4243/2017,14.5711,142.5716,152.7833,1.003243,0.906845,2000,14.0,4.0
# From MPEC 2021-P47
C/2017 E3 (PANSTARRS),h,06/07.3285/2017,70.6598,220.7907,334.4641,1.005929,5.936340,2000,6.5,4.0
# From MPC105239
C/2017 E4 (Lovejoy),h,04/23.3500/2017,87.9786,222.7986,87.0874,1.001484,0.491903,2000,17.0,4.0
# From MPC111769
C/2017 F1 (Lemmon),h,11/28.8842/2017,146.4611,158.7884,64.7247,1.002085,4.497619,2000,10.5,4.0
# From MPC114598
C/2017 F2 (PANSTARRS),h,11/26.1799/2017,42.5471,38.6949,134.9493,1.002297,6.927978,2000,7.5,4.0
# From MPC104794
P/2017 G1 (PANSTARRS),e,4.7790,249.6481,224.4314,7.279836,0.0501790,0.65318469,107.6932,03/13.0/2022,2000,g 13.5,4.0
# From MPC108595
P/2017 G2 (PANSTARRS),e,47.9525,79.8070,105.4831,8.057039,0.0430964,0.64763387,74.8589,03/13.0/2022,2000,g 13.0,4.0
# From MPEC 2021-P47
C/2017 G3 (PANSTARRS),e,159.0340,279.4558,73.0262,312.1733,0.0001787,0.99172886,0.0000,04/16.4069/2017,2000,g 14.0,4.0
# From MPC115882
C/2017 K1 (PANSTARRS),h,03/17.9648/2018,154.0204,225.7089,4.4348,1.003330,7.287228,2000,7.0,4.0
# From MPEC 2022-ED3
C/2017 K2 (PANSTARRS),h,12/19.6867/2022,87.5593,88.2363,236.1935,1.000732,1.797077,2000,1.5,4.0
# From MPEC 2021-N06
P/2017 K3 (Gasparovic),e,4.2730,354.2876,253.4450,5.583959,0.0746949,0.57963573,130.5875,03/13.0/2022,2000,g 14.5,4.0
# From MPC114598
C/2017 K4 (ATLAS),e,16.6721,298.8927,15.3169,28.65867,0.0064242,0.90727915,9.7941,03/13.0/2022,2000,g 10.0,4.0
# From MPEC 2021-P47
C/2017 K5 (PANSTARRS),h,03/27.2430/2020,82.2385,102.3747,172.0521,1.005523,7.682781,2000,5.0,4.0
# From MPC114599
C/2017 K6 (Jacques),e,57.2298,84.9539,303.7746,1161,0.0000249,0.99828142,0.0000,01/03.8336/2018,2000,g 11.0,4.0
# From MPEC 2021-P47
C/2017 M3 (PANSTARRS),e,77.5901,7.0386,110.2772,166.8943,0.0004571,0.97212933,0.0000,04/28.3526/2017,2000,g 10.5,4.0
# From MPEC 2021-Y10
C/2017 M4 (ATLAS),h,01/17.9589/2019,105.6467,65.9256,167.6171,1.001392,3.253440,2000,6.0,4.0
# From MPC118841
C/2017 M5 (TOTAS),h,06/04.4597/2018,15.8678,216.2888,92.8297,1.005405,6.000396,2000,6.5,4.0
# From MPC114599
C/2017 O1 (ASASSN),e,39.9659,25.7251,20.8373,368.8351,0.0001391,0.99595607,0.0000,10/15.5307/2017,2000,g 11.0,4.0
# From MPC114599
P/2017 P1 (PANSTARRS),e,7.6917,221.3812,122.5473,7.906695,0.0443314,0.31101950,60.3087,03/13.0/2022,2000,g 10.0,4.0
# From MPC114599
C/2017 P2 (PANSTARRS),e,50.0483,165.4572,132.4731,2504,0.0000079,0.99901279,0.0000,12/06.2638/2017,2000,g 10.0,4.0
# From MPEC 2022-ED3
P/2017 R1 (PANSTARRS),e,2.5745,143.6161,178.7163,4.134868,0.1172227,0.19560134,210.5672,03/13.0/2022,2000,g 13.5,4.0
# From MPC108595
C/2017 S2 (PANSTARRS),e,12.6710,62.3444,306.0750,20.62203,0.0105246,0.82479094,17.4233,03/13.0/2022,2000,g 13.0,4.0
# From MPC114599
C/2017 S3 (PANSTARRS),h,08/16.3835/2018,99.2058,171.3077,255.8008,1.000069,0.206486,2000,11.0,4.0
# From MPC109591
C/2017 S6 (Catalina),h,02/26.1523/2018,152.8667,131.0709,134.9305,1.000808,1.549107,2000,12.5,4.0
# From MPC114599
C/2017 S7 (Lemmon),e,124.2245,262.7407,187.5199,7255,0.0000016,0.99895157,0.0000,05/23.9243/2017,2000,g  7.0,4.0
# From MPC114599
P/2017 S8 (PANSTARRS),e,29.8566,191.5257,254.8005,2.780056,0.2126296,0.39109632,320.1772,03/13.0/2022,2000,g 16.0,4.0
# From MPC107050
P/2017 S9 (PANSTARRS),e,14.1440,146.2230,237.6690,3.154210,0.1759415,0.30544243,298.1536,03/13.0/2022,2000,g 17.0,4.0
# From MPC114600
C/2017 T1 (Heinze),e,96.8806,102.4501,97.0029,11555,0.0000008,0.99994936,0.0000,02/20.7796/2018,2000,g 14.5,4.0
# From MPEC 2021-Y10
C/2017 T2 (PANSTARRS),e,57.2372,64.3854,92.9769,1927,0.0000117,0.99916163,0.0000,05/04.8267/2020,2000,g  5.0,4.0
# From MPC114600
C/2017 T3 (ATLAS),e,88.1743,230.1647,246.8203,1183,0.0000242,0.99930291,0.0000,07/18.9057/2018,2000,g 10.0,4.0
# From MPC115882
P/2017 TW13 (Lemmon),e,44.8496,322.2893,119.9291,7.138228,0.0516795,0.70983284,70.3250,03/13.0/2022,2000,g 15.0,2.0
# From MPC114600
C/2017 U2 (Fuls),e,95.3887,149.7090,147.8610,2748,0.0000068,0.99755730,0.0000,08/28.1780/2017,2000,g  9.0,4.0
# From MPC114600
P/2017 U3 (PANSTARRS),e,15.9188,165.1110,296.5104,4.927081,0.0901196,0.09909416,95.9304,03/13.0/2022,2000,g 11.0,4.0
# From MPEC 2021-P47
C/2017 U4 (PANSTARRS),h,09/22.4053/2018,158.2074,245.9260,158.9853,1.000758,7.720968,2000,7.0,4.0
# From MPC114600
C/2017 U5 (PANSTARRS),e,18.9786,163.0864,261.9958,16.89051,0.0141984,0.74442435,21.9369,03/13.0/2022,2000,g 12.0,4.0
# From MPEC 2022-ED3
C/2017 U7 (PANSTARRS),h,09/14.6024/2019,142.5989,276.2502,326.3649,1.000803,6.425750,2000,8.3,2.0
# From MPC114600
C/2017 W2 (Leonard),e,98.2020,312.8302,168.9311,13.62716,0.0195928,0.71033127,31.2183,03/13.0/2022,2000,g 11.0,4.0
# From MPC114601
